SatCatId,ObjectName,LaunchYear,OrbitalPeriod,LaunchMass,StatusCode,Inclination,Status,UcsData,OrbitClassEstimated,LaunchSiteCountry,Owner,UseType,Purpose,LaunchVehicleClass,TLE1,TLE2,MeanMotion,Eccentricity,OrbitClass
43171,YAOGAN-30 L,2018,96.5,-1.0,+,35.0,Active,1,LEO,PRC,China,Military,Earth Observation,Long March,1 43171U 18011C   23152.15112647  .00002502  00000+0  24303-3 0  9990,2 43171  34.9970  34.7080 0002234  37.2730 322.8130 14.92284914291437,14.92284914,0.0002234,LEO
43172,YAOGAN-30 M,2018,96.49,-1.0,+,35.0,Active,1,LEO,PRC,China,Military,Earth Observation,Long March,1 43172U 18011D   23152.14580427  .00002477  00000+0  24046-3 0  9990,2 43172  34.9985  34.8781 0002487 100.8252 259.2733 14.92325276291427,14.92325276,0.0002487,LEO
43174,AL YAH 3,2018,1436.06,3795.0,+,0.18,Active,1,GSO,French Guiana,UAE,Commercial,Communications,Ariane,1 43174U 18012A   23151.44092510 -.00000135  00000+0  00000+0 0  9996,2 43174   0.1790  94.6212 0002725 336.3687 316.3256  1.00274605 19689,1.00274605,0.0002725,GEO
43175,SES-14,2018,1436.11,4423.0,+,0.01,Active,1,GSO,French Guiana,SES,Commercial,Communications,Ariane,1 43175U 18012B   23151.86554944 -.00000258  00000+0  00000+0 0  9993,2 43175   0.0141 320.5317 0001147 114.7907  77.8847  1.00270638 19919,1.00270638,0.0001147,GEO
43180,KANOPUS-V 3,2018,94.66,500.0,+,97.42,Active,1,LEO,Russia,Russia/USSR,Government,Earth Observation,Soyuz,1 43180U 18014A   23152.19510562  .00003231  00000+0  14767-3 0  9998,2 43180  97.4165  60.6464 0001953  87.6888 272.4571 15.21264925295527,15.21264925,0.0001953,LEO
43181,KANOPUS-V 4,2018,94.66,500.0,+,97.42,Active,1,LEO,Russia,Russia/USSR,Government,Earth Observation,Soyuz,1 43181U 18014B   23152.16896482  .00003154  00000+0  14422-3 0  9996,2 43181  97.4168  60.6724 0001931  86.2683 273.8774 15.21266199295530,15.21266199,0.0001931,LEO
43182,LEMUR-2-JIN-LUEN,2018,95.77,10.0,+,97.62,Active,1,LEO,Russia,USA,Commercial,Earth Observation,Soyuz,1 43182U 18014C   23151.67323981  .00006415  00000+0  47216-3 0  9991,2 43182  97.6203  54.2519 0013747 211.9514 148.0879 15.03635993291124,15.03635993,0.0013747,LEO
43183,LEMUR-2-URAMCHANSOL,2018,95.7,10.0,+,97.62,Active,1,LEO,Russia,USA,Commercial,Earth Observation,Soyuz,1 43183U 18014D   23151.74269197  .00009498  00000+0  67720-3 0  9994,2 43183  97.6186  54.7395 0014433 200.5863 159.4784 15.04694814291158,15.04694814,0.0014433,LEO
43184,LEMUR-2-KADI,2018,95.76,10.0,+,97.61,Active,1,LEO,Russia,USA,Commercial,Earth Observation,Soyuz,1 43184U 18014E   23151.72269948  .00006702  00000+0  49090-3 0  9992,2 43184  97.6083  54.1370 0012934 182.5634 177.5527 15.03811378291129,15.03811378,0.0012934,LEO
43185,LEMUR-2-THENICKMOLO,2018,95.75,10.0,+,97.61,Active,1,LEO,Russia,USA,Commercial,Earth Observation,Soyuz,1 43185U 18014F   23151.69909338  .00006718  00000+0  49010-3 0  9992,2 43185  97.6094  54.5195 0008804 185.8209 174.2916 15.03996594291137,15.03996594,0.0008804,LEO
43186,S-NET D,2018,95.98,8.5,+,97.64,Active,1,LEO,Russia,Germany,Civil,Technology Development,Soyuz,1 43186U 18014G   23151.71036286  .00002276  00000+0  18569-3 0  9999,2 43186  97.6355  55.8254 0014081 212.1299 147.9067 15.00368328291088,15.00368328,0.0014081,LEO
43187,S-NET B,2018,95.98,8.5,+,97.63,Active,1,LEO,Russia,Germany,Civil,Technology Development,Soyuz,1 43187U 18014H   23151.71136456  .00002342  00000+0  19099-3 0  9993,2 43187  97.6344  55.7568 0014292 210.5952 149.4439 15.00357673291087,15.00357673,0.0014292,LEO
43188,S-NET A,2018,95.98,9.0,+,97.64,Active,1,LEO,Russia,Germany,Civil,Technology Development,Soyuz,1 43188U 18014J   23151.71151499  .00002319  00000+0  18909-3 0  9991,2 43188  97.6350  55.8434 0014278 210.7328 149.3061 15.00360382291082,15.00360382,0.0014278,LEO
43189,S-NET C,2018,95.98,9.0,+,97.63,Active,1,LEO,Russia,Germany,Civil,Technology Development,Soyuz,1 43189U 18014K   23151.71358324  .00002390  00000+0  19482-3 0  9994,2 43189  97.6331  55.7376 0014629 207.4190 152.6263 15.00343215289631,15.00343215,0.0014629,LEO
43194,ZHANGHENG 1 (CSES),2018,94.68,730.0,+,97.56,Active,1,LEO,PRC,China,Government,Earth Observation,Long March,1 43194U 18015C   23152.08364002  .00010564  00000+0  48008-3 0  9990,2 43194  97.5631 288.2188 0007578  42.0949 318.0867 15.20920484295617,15.20920484,0.0007578,LEO
43195,NUSAT-4 (ADA),2018,93.0,35.0,+,97.57,Active,1,LEO,PRC,Argentina,Commercial,Earth Observation,Long March,1 43195U 18015D   23152.04334292  .00038923  00000+0  73309-3 0  9996,2 43195  97.5733 307.6147 0010583 237.5104 122.5124 15.48365337296778,15.48365337,0.0010583,LEO
43196,GOMX-4B,2018,93.76,8.0,+,97.58,Active,1,LEO,PRC,Denmark,Government,Technology Development,Long March,1 43196U 18015E   23151.92391893  .00014260  00000+0  40917-3 0  9990,2 43196  97.5762 302.3329 0013484 261.7075  98.2639 15.35891923296450,15.35891923,0.0013484,LEO
43197,GOMX-4A,2018,93.56,8.0,+,97.58,Active,1,LEO,PRC,Denmark,Military,Earth Observation,Long March,1 43197U 18015F   23152.15813862  .00018551  00000+0  47907-3 0  9995,2 43197  97.5761 304.5909 0012891 255.4479 104.5336 15.39107933296637,15.39107933,0.0012891,LEO
43199,SHAONIAN XING,2018,91.61,3.0,+,97.54,Active,1,LEO,PRC,China,Civil,Technology Development,Long March,1 43199U 18015H   23152.18559195  .00161304  00000+0  12093-2 0  9998,2 43199  97.5425 310.5692 0009124 223.1306 136.9243 15.72091178297309,15.72091178,0.0009124,LEO
43204,NUSAT-5 (MARYAM),2018,92.93,35.0,+,97.57,Active,1,LEO,PRC,Argentina,Commercial,Earth Observation,Long March,1 43204U 18015K   23152.15906789  .00042424  00000+0  76483-3 0  9992,2 43204  97.5731 308.6811 0009880 235.4553 124.5766 15.49608368296442,15.49608368,0.000988,LEO
43207,BEIDOU-3 M4,2018,773.23,800.0,+,55.74,Active,1,MEO,PRC,China,Government/Military,Navigation (Global or Regional Positioning),Long March,1 43207U 18018A   23151.09653154  .00000014  00000+0  00000+0 0  9992,2 43207  55.7359 100.1463 0007168 338.5091  21.4281  1.86231580 36010,1.8623158,0.0007168,MEO
43208,BEIDOU-3 M3,2018,773.23,800.0,+,55.74,Active,1,MEO,PRC,China,Government/Military,Navigation (Global or Regional Positioning),Long March,1 43208U 18018B   23151.16311854  .00000014  00000+0  00000+0 0  9999,2 43208  55.7354 100.1485 0009726 309.6808  50.2006  1.86231495 36017,1.86231495,0.0009726,MEO
43215,PAZ,2018,94.79,1450.0,+,97.45,Active,1,LEO,USA,Spain,Commercial/Military,Earth Observation,Falcon,1 43215U 18020A   23152.18485233  .00002607  00000+0  12728-3 0  9990,2 43215  97.4452 159.5298 0001752  89.8928 270.2507 15.19157726292196,15.19157726,0.0001752,LEO
43226,GOES 17,2018,1436.1,5211.0,B,0.04,Active,1,GSO,USA,USA,Government,Earth Observation,Atlas,1 43226U 18022A   23152.21307869 -.00000070  00000+0  00000+0 0  9995,2 43226   0.0181 197.4034 0002297 247.6790 136.3538  1.00272059 19287,1.00272059,0.0002297,GEO
43228,HISPASAT 30W-6,2018,1436.04,6100.0,+,0.05,Active,1,GSO,USA,Spain,Commercial,Communications,Falcon,1 43228U 18023A   23151.72556274 -.00000196  00000+0  00000+0 0  9998,2 43228   0.0456  41.1837 0005981  20.0130  58.9769  1.00270631 19294,1.00270631,0.0005981,GEO
43229,PODSAT,2018,208.0,-1.0,+,26.82,Active,0,MEO,USA,USA,Unknown,Unknown,Unknown,1 43229U 18023B   23152.03006515  .00040491  00000+0  79795-3 0  9994,2 43229  26.8225 107.1771 4330399 135.4201 268.9471  6.92462832107689,6.92462832,0.4330399,MEO
43231,O3B FM15,2018,287.93,650.0,+,0.05,Active,1,MEO,French Guiana,O3b Networks,Commercial,Communications,Soyuz,1 43231U 18024A   23151.70085960 -.00000011  00000+0  00000+0 0  9996,2 43231   0.0546   3.9603 0002930  62.0297 294.0437  5.00116472 95370,5.00116472,0.000293,MEO
43232,O3B FM16,2018,287.93,650.0,+,0.06,Active,1,MEO,French Guiana,O3b Networks,Commercial,Communications,Soyuz,1 43232U 18024B   23151.15468650 -.00000011  00000+0  00000+0 0  9997,2 43232   0.0587   4.8479 0002955  61.1309 294.0550  5.00116226 95269,5.00116226,0.0002955,MEO
43233,O3B FM14,2018,287.93,650.0,+,0.06,Active,1,MEO,French Guiana,O3b Networks,Commercial,Communications,Soyuz,1 43233U 18024C   23151.59439638 -.00000011  00000+0  00000+0 0  9990,2 43233   0.0599   5.7482 0003074  63.1844 291.1033  5.00115670 95295,5.0011567,0.0003074,MEO
43234,O3B FM13,2018,287.93,650.0,+,0.06,Active,1,MEO,French Guiana,O3b Networks,Commercial,Communications,Soyuz,1 43234U 18024D   23143.85230497 -.00000026  00000+0  00000+0 0  9999,2 43234   0.0607 346.0330 0003375  61.0004 312.9951  5.00115469 95026,5.00115469,0.0003375,MEO
43236,LKW-4,2018,94.55,-1.0,+,97.51,Active,1,LEO,PRC,China,Military,Earth Observation,Long March,1 43236U 18025A   23152.06741091  .00007717  00000+0  33147-3 0  9997,2 43236  97.5133 277.8754 0005687  76.4656 283.7214 15.22955686289531,15.22955686,0.0005687,LEO
43241,GSAT-6A,2018,1206.88,-1.0,-,0.89,Inactive,0,MEO,India,India,Unknown,Unknown,GSLV,1 43241U 18027A   23151.70028493 -.00000065  00000+0  00000+0 0  9997,2 43241   0.8878 124.0451 1311184  39.5011 179.9542  1.19316589 22589,1.19316589,0.1311184,MEO
43245,BEIDOU-3 M9,2018,773.23,800.0,+,55.07,Active,1,MEO,PRC,China,Government/Military,Navigation (Global or Regional Positioning),Long March,1 43245U 18029A   23151.92354662 -.00000064  00000+0  00000+0 0  9996,2 43245  55.0702 338.4922 0001051  75.4653 284.5669  1.86232704 35187,1.86232704,0.0001051,MEO
43246,BEIDOU-3 M10,2018,773.23,800.0,+,55.07,Active,1,MEO,PRC,China,Government/Military,Navigation (Global or Regional Positioning),Long March,1 43246U 18029B   23151.85373767 -.00000064  00000+0  00000+0 0  9996,2 43246  55.0673 338.5230 0004318  18.7753 341.2613  1.86232908 35173,1.86232908,0.0004318,MEO
43249,IRIDIUM 144,2018,100.4,860.0,+,86.4,Active,1,LEO,USA,USA,Commercial/Government,Communications,Falcon,1 43249U 18030A   23151.91110125  .00000278  00000+0  92236-4 0  9998,2 43249  86.3995  35.2682 0002135  80.9956 279.1481 14.34220036270712,14.34220036,0.0002135,LEO
